STARLINK-31948          
1 59941U 24106V   26068.06481903  .00000949  00000+0  44005-4 0  9992
2 59941  42.9926 332.8110 0001731  11.3368 348.7522 15.27573686100466
FLOCK 4G-4              
1 62659U 25009BC  26068.75333732  .00011866  00000+0  45294-3 0  9997
2 62659  97.3994 150.7963 0001598 343.4316  16.6870 15.26803327121323
